[Satellite]
VERSION=1.1
NAME=AstroCast 0.2
NICKNAME=AstroCast 0.2
TLE1=1 44083U 19018F   22335.41123326  .00012901  00000-0  42863-3 0  9994
TLE2=2 44083  97.3010  31.3375 0007251 245.4379 114.6107 15.31304661203995
STATUS=0
